[
    {
        "Altitude(m)": 624790.7916772362,
        "Argument of Periapsis(deg)": 0.0,
        "Eccentricity": 0.0,
        "Inclination(deg)": 60.0,
        "Latitude(deg)": -59.14710532950478,
        "Longitude(deg)": 166.03445435355053,
        "Mean Anomaly(deg)": -81.8182,
        "RAAN(deg)": 340.00000000000006,
        "Satellite Name": "Test1 1513",
        "Satellite Number": 1513,
        "Semi-Major Axis(m)": 6980739.136638005,
        "Time(s)": 0
    },
    {
        "Altitude(m)": 624737.4473248996,
        "Argument of Periapsis(deg)": 0.00010418945913296404,
        "Eccentricity": 0.0,
        "Inclination(deg)": 60.0,
        "Latitude(deg)": -58.99456225033607,
        "Longitude(deg)": 167.1539569980083,
        "Mean Anomaly(deg)": -81.19809385453816,
        "RAAN(deg)": 339.99957995086027,
        "Satellite Name": "Test1 1513",
        "Satellite Number": 1513,
        "Semi-Major Axis(m)": 6980739.136638005,
        "Time(s)": 10
    }
]